[{"OBJECT_NAME":"STARLINK-1456","OBJECT_ID":"2020-035S","EPOCH":"2026-03-09T22:34:56.373600","MEAN_MOTION":15.50051869,"ECCENTRICITY":0.00018137,"INCLINATION":53.0504,"RA_OF_ASC_NODE":45.1204,"ARG_OF_PERICENTER":106.2167,"MEAN_ANOMALY":253.9041,"EPHEMERIS_TYPE":0,"CLASSIFICATION_TYPE":"U","NORAD_CAT_ID":45673,"ELEMENT_SET_NO":999,"REV_AT_EPOCH":31906,"BSTAR":0.00055085133,"MEAN_MOTION_DOT":0.00031126,"MEAN_MOTION_DDOT":0},{"OBJECT_NAME":"SAMSAT-IONOSPHERE (RS75S)","OBJECT_ID":"2024-199BB","EPOCH":"2026-03-09T22:17:42.664992","MEAN_MOTION":15.49563395,"ECCENTRICITY":0.00086255,"INCLINATION":97.3115,"RA_OF_ASC_NODE":302.9928,"ARG_OF_PERICENTER":292.4017,"MEAN_ANOMALY":67.632,"EPHEMERIS_TYPE":0,"CLASSIFICATION_TYPE":"U","NORAD_CAT_ID":61784,"ELEMENT_SET_NO":999,"REV_AT_EPOCH":12215,"BSTAR":0.00081689278,"MEAN_MOTION_DOT":0.00045244,"MEAN_MOTION_DDOT":0}]
